     2.10           N: GPS NAV DATA                         RINEX VERSION / TYPE
teqc  2009Mar23                         20150829 00:19:20UTCPGM / RUN BY / DATE
    17                                                      LEAP SECONDS
Linux 2.4.20-8|Pentium IV|gcc -static|Linux|486/DX+         COMMENT
teqc  2009Mar23                         20150828 01:05:04UTCCOMMENT
                                                            END OF HEADER
20 15  8 28  1 59 44.0 3.505419008434D-04 3.069544618484D-12 0.000000000000D+00
    6.000000000000D+00 4.690625000000D+01 5.586661278295D-09 1.033021917921D+00
    2.540647983551D-06 4.832993028685D-03 9.426847100258D-06 5.153631958008D+03
    4.391840000000D+05-5.587935447693D-08-2.592384864058D+00 5.774199962616D-08
    9.264884490599D-01 1.809375000000D+02 1.208736671568D+00-8.600715397176D-09
    7.132439951896D-10 1.000000000000D+00 1.859000000000D+03 0.000000000000D+00
    2.000000000000D+00 0.000000000000D+00-8.381903171539D-09 6.000000000000D+00
    4.387200000000D+05 4.000000000000D+00
14 15  8 28  1 59 44.0 3.875652328134D-05-2.614797267597D-12 0.000000000000D+00
    6.000000000000D+00-3.928125000000D+01 4.950920511426D-09 1.647161289828D+00
   -2.216547727585D-06 8.463139063679D-03 5.710870027542D-06 5.153634330750D+03
    4.391840000000D+05-1.452863216400D-07-1.392919311469D+00-1.601874828339D-07
    9.654471805103D-01 2.752812500000D+02-1.961443676128D+00-8.305345950996D-09
   -4.971635660009D-10 1.000000000000D+00 1.859000000000D+03 0.000000000000D+00
    2.000000000000D+00 0.000000000000D+00-9.313225746155D-09 6.000000000000D+00
    4.390500000000D+05 4.000000000000D+00
 8 15  8 28  4  0  0.0-3.252644091845D-06-1.250555214938D-12 0.000000000000D+00
    6.700000000000D+01-5.921875000000D+01 4.830558355002D-09-2.037884403688D+00
   -3.103166818619D-06 1.350136124529D-03 1.363456249237D-06 5.153561147690D+03
    4.464000000000D+05 1.378357410431D-07 1.668028051949D+00-4.284083843231D-08
    9.599352314183D-01 3.530937500000D+02-1.816591335704D+00-8.552499103059D-09
   -2.275094766829D-10 1.000000000000D+00 1.859000000000D+03 0.000000000000D+00
    2.000000000000D+00 0.000000000000D+00 7.450580596924D-09 6.700000000000D+01
    4.418700000000D+05 4.000000000000D+00
14 15  8 28  4  0  0.0 3.873743116856D-05-2.614797267597D-12 0.000000000000D+00
    7.000000000000D+00-3.918750000000D+01 4.952706300097D-09 2.699715794434D+00
   -2.069398760796D-06 8.463172125630D-03 5.429610610008D-06 5.153634138107D+03
    4.464000000000D+05 4.284083843231D-08-1.392978427989D+00-1.378357410431D-07
    9.654442839325D-01 2.743125000000D+02-1.961456323055D+00-8.147839390215D-09
   -5.021637742797D-10 1.000000000000D+00 1.859000000000D+03 0.000000000000D+00
    2.000000000000D+00 0.000000000000D+00-9.313225746155D-09 7.000000000000D+00
    4.418700000000D+05 4.000000000000D+00
15 15  8 28  3 59 44.0-2.684509381652D-04-2.046363078989D-12 0.000000000000D+00
    3.000000000000D+01-2.681250000000D+01 5.907388923603D-09 2.025831377746D+00
   -1.307576894760D-06 7.353130029514D-03 4.885718226433D-06 5.153692892075D+03
    4.463840000000D+05-2.179294824600D-07-1.520234568855D+00 1.359730958939D-07
    9.321452402079D-01 2.719375000000D+02 3.979486520444D-01-8.765007954906D-09
   -2.717970357232D-10 1.000000000000D+00 1.859000000000D+03 0.000000000000D+00
    2.000000000000D+00 0.000000000000D+00-1.071020960808D-08 3.000000000000D+01
    4.418700000000D+05 4.000000000000D+00
18 15  8 28  4  0  0.0 4.291641525924D-04 3.183231456205D-12 0.000000000000D+00
    2.900000000000D+01 5.962500000000D+01 5.476656696163D-09-2.011057536299D+00
    3.091990947723D-06 1.636726676952D-02 8.303672075272D-06 5.153624372482D+03
    4.464000000000D+05 2.905726432800D-07-2.540255340700D+00 7.450580596924D-09
    9.252433741118D-01 1.935937500000D+02-1.939972643990D+00-8.271773123981D-09
    8.757507642488D-10 1.000000000000D+00 1.859000000000D+03 0.000000000000D+00
    2.000000000000D+00 0.000000000000D+00-1.117587089539D-08 2.900000000000D+01
    4.418700000000D+05 4.000000000000D+00
19 15  8 28  4  0  0.0-5.190880037844D-04-6.821210263297D-13 0.000000000000D+00
    8.200000000000D+01-7.571875000000D+01 4.589834042154D-09 1.650414427574D+00
   -4.027038812637D-06 1.135319459718D-02 2.518296241760D-06 5.155126325607D+03
    4.464000000000D+05-1.098960638046D-07 1.766230161387D+00 1.117587089539D-08
    9.701941419431D-01 3.404062500000D+02 6.439901012069D-01-8.455709357092D-09
   -3.789443559820D-10 1.000000000000D+00 1.859000000000D+03 0.000000000000D+00
    2.000000000000D+00 0.000000000000D+00-1.490116119385D-08 8.200000000000D+01
    4.418700000000D+05 4.000000000000D+00
20 15  8 28  3 59 44.0 3.505642525852D-04 3.069544618484D-12 0.000000000000D+00
    2.500000000000D+01 4.931250000000D+01 5.515586889190D-09 2.083247780249D+00
    2.566725015640D-06 4.832810256630D-03 9.303912520409D-06 5.153631855011D+03
    4.463840000000D+05 2.235174179077D-08-2.592446610904D+00-8.568167686462D-08
    9.264944484869D-01 1.824062500000D+02 1.208725199365D+00-8.439280101319D-09
    7.621746047744D-10 1.000000000000D+00 1.859000000000D+03 0.000000000000D+00
    2.000000000000D+00 0.000000000000D+00-8.381903171539D-09 2.500000000000D+01
    4.418700000000D+05 4.000000000000D+00
21 15  8 28  3 59 44.0-4.753679968417D-04-2.955857780762D-12 0.000000000000D+00
    1.400000000000D+01-9.446875000000D+01 4.854845080927D-09-1.015726783978D+00
   -4.533678293228D-06 2.253964927513D-02 1.270882785320D-05 5.153776458740D+03
    4.463840000000D+05-7.078051567078D-08 2.700462507320D+00 5.364418029785D-07
    9.348632717792D-01 1.219687500000D+02-1.883916717265D+00-8.445708940535D-09
    3.214419607765D-11 1.000000000000D+00 1.859000000000D+03 0.000000000000D+00
    2.000000000000D+00 0.000000000000D+00-1.164153218269D-08 1.400000000000D+01
    4.418700000000D+05 4.000000000000D+00
22 15  8 28  4  0  0.0 3.856932744384D-04 3.751665644813D-12 0.000000000000D+00
    3.000000000000D+01 5.331250000000D+01 5.552016978078D-09-2.490338087412D+00
    2.577900886536D-06 8.033566758968D-03 8.793547749519D-06 5.153682357788D+03
    4.464000000000D+05 1.881271600723D-07-2.539257318968D+00-2.048909664154D-08
    9.230653509541D-01 1.867812500000D+02-2.039512943112D+00-8.431422631167D-09
    8.171768958406D-10 1.000000000000D+00 1.859000000000D+03 0.000000000000D+00
    2.000000000000D+00 0.000000000000D+00-1.769512891769D-08 3.000000000000D+01
    4.418700000000D+05 4.000000000000D+00
24 15  8 28  4  0  0.0-3.724824637175D-06-5.684341886081D-13 0.000000000000D+00
    3.900000000000D+01 2.143750000000D+01 4.556618372874D-09 8.599359446752D-01
    1.195818185806D-06 3.346542827785D-03 1.285783946514D-05 5.153667562485D+03
    4.464000000000D+05 5.587935447693D-08-4.397426591726D-01-1.862645149231D-08
    9.526730368959D-01 1.237812500000D+02 3.158828801213D-01-8.023548498715D-09
   -5.675236396376D-10 1.000000000000D+00 1.859000000000D+03 0.000000000000D+00
    2.000000000000D+00 0.000000000000D+00 2.328306436539D-09 3.900000000000D+01
    4.418700000000D+05 4.000000000000D+00
27 15  8 28  4  0  0.0 1.522293314338D-05 2.955857780762D-12 0.000000000000D+00
    9.700000000000D+01-6.343750000000D+01 4.629835708384D-09 2.681400415570D+00
   -3.296881914139D-06 2.621229039505D-03 1.439824700356D-06 5.153697586060D+03
    4.464000000000D+05 3.725290298462D-08 1.668534436654D+00 5.215406417847D-08
    9.680114871868D-01 3.562187500000D+02 3.242585191489D-01-8.523212168855D-09
   -2.364384200378D-10 1.000000000000D+00 1.859000000000D+03 0.000000000000D+00
    2.000000000000D+00 0.000000000000D+00 1.396983861923D-09 9.700000000000D+01
    4.418700000000D+05 4.000000000000D+00
28 15  8 28  4  0  0.0 4.635625518858D-04 2.614797267597D-12 0.000000000000D+00
    1.200000000000D+01 1.222187500000D+02 3.809801550670D-09-2.731001002685D+00
    6.308779120445D-06 1.960963441525D-02 5.502253770828D-06 5.153699861526D+03
    4.464000000000D+05 2.197921276093D-07 6.965432695488D-01 5.587935447693D-08
    9.892610437676D-01 2.885312500000D+02-1.658272181898D+00-7.599245110490D-09
    3.643008888800D-10 1.000000000000D+00 1.859000000000D+03 0.000000000000D+00
    2.000000000000D+00 0.000000000000D+00-1.117587089539D-08 1.200000000000D+01
    4.418700000000D+05 4.000000000000D+00
13 15  8 28  4  0  0.0-1.445496454835D-04-2.955857780762D-12 0.000000000000D+00
    6.900000000000D+01-3.487500000000D+01 4.819129307508D-09 7.600209249393D-01
   -1.847743988037D-06 4.748968989588D-03 6.079673767090D-06 5.153675380707D+03
    4.464000000000D+05-6.146728992462D-08-1.357732727452D+00-5.960464477539D-08
    9.729596086331D-01 2.684062500000D+02 2.087408864935D+00-8.202127365813D-09
   -3.975165581602D-10 1.000000000000D+00 1.859000000000D+03 0.000000000000D+00
    2.000000000000D+00 0.000000000000D+00-1.117587089539D-08 6.900000000000D+01
    4.421100000000D+05 4.000000000000D+00
 4 15  8 28  4  0  0.0-1.455796882510D-05-3.865352482535D-12 0.000000000000D+00
    9.300000000000D+01-9.521875000000D+01 4.738768817314D-09 3.748413197027D-01
   -5.060806870461D-06 1.176732964814D-02 1.124292612076D-05 5.153662700653D+03
    4.464000000000D+05-1.974403858185D-07 2.701670238358D+00 1.117587089539D-07
    9.408486840670D-01 1.570937500000D+02 1.090668220926D+00-8.270701650779D-09
   -5.857386840816D-11 1.000000000000D+00 1.859000000000D+03 0.000000000000D+00
    2.000000000000D+00 0.000000000000D+00-6.519258022308D-09 9.300000000000D+01
    4.437600000000D+05 4.000000000000D+00
